0 CZ-4 DEB
1 26241U 99057EF  13279.82760186  .00000319  00000-0  12836-3 0  1139
2 26241 098.4986 212.1374 0113300 349.0187 075.8663 14.31222395707888
0 CZ-4 DEB
1 26241U 99057EF  13282.06430678  .00000343  00000-0  13683-3 0  1148
2 26241 098.4988 214.3265 0113157 342.3810 080.3024 14.31225594708205
0 CZ-4 DEB
1 26241U 99057EF  13284.09242053  .00000363  00000-0  14407-3 0  1159
2 26241 098.4992 216.3114 0113053 336.3663 090.0063 14.31227291708497
0 CZ-4 DEB
1 26241U 99057EF  13286.81751454  .00000374  00000-0  14795-3 0  1164
2 26241 098.4998 218.9783 0112895 328.2809 090.8762 14.31229311708880
0 CZ-4 DEB
1 26241U 99057EF  13289.28277207  .00000382  00000-0  15083-3 0  1178
2 26241 098.5003 221.3911 0112753 320.9502 192.9920 14.31233015709237
0 CZ-4 DEB
1 26241U 99057EF  13290.72085186  .00000076  00000-0  26685-4 0  1184
2 26241 098.4971 222.7914 0112939 316.6042 042.6769 14.31228324709447
0 CZ-4 DEB
1 26241U 99057EF  13291.44292152  .00000428  00000-0  16714-3 0  1189
2 26241 098.5005 223.5057 0112657 314.5173 163.0884 14.31234980709544
0 CZ-4 DEB
1 26241U 99057EF  13293.80714622  .00000498  00000-0  19170-3 0  1199
2 26241 098.5006 225.8202 0112578 307.4648 104.7066 14.31237249709884
